     2.11           N: GPS NAV DATA                         RINEX VERSION / TYPE
teqc  2018Dec12     gpsops              20220209 01:04:00UTCPGM / RUN BY / DATE
Linux 2.6.32-573.12.1.x86_64|x86_64|gcc -static|Linux 64|=+ COMMENT
CHPI                                    MARKER NAME         COMMENT
41609M003                               MARKER NUMBER       COMMENT
4164613.9484 -4162456.9866 -2445028.7316                    COMMENT
                                                            COMMENT
This data is provided as a public service by NASA/JPL.      COMMENT
No warranty is expressed or implied regarding suitability   COMMENT
for use.  For further information, contact:                 COMMENT
Dave Stowers, NASA/JPL m/s 238-600                          COMMENT
4800 Oak Grove Drive, Pasadena CA 91109 USA                 COMMENT
                                                            END OF HEADER
22 22  2  8 20  0  0.0 2.106642350554D-04 5.684341886081D-12 0.000000000000D+00
    4.500000000000D+01-1.653125000000D+01 4.717696510996D-09 7.227583928739D-01
   -9.126961231232D-07 1.286762976088D-02 7.877126336098D-06 5.153650886536D+03
    2.448000000000D+05-1.750886440277D-07 3.787207239012D-01 2.421438694000D-08
    9.615330495624D-01 2.284062500000D+02-1.874045757985D+00-8.268201546639D-09
   -7.893185925733D-11 1.000000000000D+00 2.196000000000D+03 0.000000000000D+00
    2.000000000000D+00 0.000000000000D+00-9.778887033463D-09 4.500000000000D+01
    2.376180000000D+05 4.000000000000D+00
21 22  2  8 20  0  0.0 1.576985232532D-04 6.821210263297D-13 0.000000000000D+00
    1.050000000000D+02-6.493750000000D+01 4.499473135402D-09 1.032703436266D+00
   -3.976747393608D-06 2.457662031520D-02 6.606802344322D-06 5.153587745667D+03
    2.448000000000D+05 3.073364496231D-07-1.876773188805D+00-5.066394805908D-07
    9.592519448081D-01 2.505312500000D+02-1.009572888877D+00-8.295702692172D-09
   -1.117903708034D-10 1.000000000000D+00 2.196000000000D+03 0.000000000000D+00
    2.000000000000D+00 0.000000000000D+00-1.024454832077D-08 1.050000000000D+02
    2.376180000000D+05 4.000000000000D+00
 8 22  2  8 20  0  0.0-5.539972335100D-05-1.477928890381D-12 0.000000000000D+00
    1.110000000000D+02 4.125000000000D+00 4.601263089648D-09 9.448861068247D-01
    4.023313522339D-07 7.259157719091D-03 3.984197974205D-06 5.153717336655D+03
    2.448000000000D+05 3.539025783539D-08-2.865628818474D+00 1.136213541031D-07
    9.650623716129D-01 3.000000000000D+02 9.874976744990D-02-8.323918153174D-09
   -2.578678840896D-10 1.000000000000D+00 2.196000000000D+03 0.000000000000D+00
    2.000000000000D+00 0.000000000000D+00 5.122274160385D-09 1.110000000000D+02
    2.376180000000D+05 4.000000000000D+00
32 22  2  8 20  0  0.0-6.425892934203D-05-6.593836587854D-12 0.000000000000D+00
    1.110000000000D+02-2.118750000000D+01 4.715553564591D-09 1.548032146758D+00
   -1.078471541405D-06 5.547399283387D-03 7.594004273415D-06 5.153769744873D+03
    2.448000000000D+05-1.508742570877D-07 2.887062100011D-01 5.587935447693D-08
    9.582610811347D-01 2.287812500000D+02-2.358160217604D+00-8.126767083898D-09
    2.500104139373D-11 1.000000000000D+00 2.196000000000D+03 0.000000000000D+00
    2.000000000000D+00 0.000000000000D+00 4.656612873077D-10 1.110000000000D+02
    2.376180000000D+05 4.000000000000D+00
31 22  2  8 20  0  0.0-1.638121902943D-04-1.818989403546D-12 0.000000000000D+00
    8.100000000000D+01 3.593750000000D+01 4.681266422108D-09-2.448603862431D+00
    1.583248376846D-06 1.045777171385D-02 9.600073099136D-06 5.153689481735D+03
    2.448000000000D+05-1.303851604462D-08 1.367467658757D+00-2.775341272354D-07
    9.549148037831D-01 1.925625000000D+02 3.748462775321D-01-7.949616847736D-09
   -8.250343659930D-11 1.000000000000D+00 2.196000000000D+03 0.000000000000D+00
    2.800000000000D+00 0.000000000000D+00-1.350417733192D-08 8.100000000000D+01
    2.376180000000D+05 4.000000000000D+00
27 22  2  8 20  0  0.0 1.103570684791D-04 1.728039933369D-11 0.000000000000D+00
    1.140000000000D+02 3.718750000000D+00 4.426255799892D-09 8.954817131163D-01
    4.321336746216D-07 1.018382131588D-02 4.585832357407D-06 5.153650791168D+03
    2.448000000000D+05-7.264316082001D-08-2.846265122756D+00 1.341104507446D-07
    9.737567380653D-01 2.968437500000D+02 6.362590575322D-01-8.303917320059D-09
   -2.900120801672D-10 1.000000000000D+00 2.196000000000D+03 0.000000000000D+00
    2.000000000000D+00 0.000000000000D+00 1.396983861923D-09 1.140000000000D+02
    2.376180000000D+05 4.000000000000D+00
 1 22  2  8 20  0  0.0 4.364075139165D-04-9.549694368616D-12 0.000000000000D+00
    1.380000000000D+02-5.778125000000D+01 3.761942414287D-09-1.326912264868D+00
   -2.959743142128D-06 1.135848439299D-02 7.426366209984D-06 5.153672105789D+03
    2.448000000000D+05 3.166496753693D-07-1.786028067284D+00 7.264316082001D-08
    9.866584876349D-01 2.490000000000D+02 8.814852560963D-01-7.734250734016D-09
   -7.500312418118D-11 1.000000000000D+00 2.196000000000D+03 0.000000000000D+00
    2.000000000000D+00 0.000000000000D+00 5.122274160385D-09 1.380000000000D+02
    2.376180000000D+05 4.000000000000D+00
10 22  2  8 20  0  0.0-3.151050768793D-04-1.023181539495D-11 0.000000000000D+00
    0.000000000000D+00-2.631250000000D+01 4.159458972448D-09 2.928621727182D+00
   -1.344829797745D-06 7.489348063245D-03 7.903203368187D-06 5.153678600311D+03
    2.448000000000D+05-5.587935447693D-09-7.533518559230D-01-4.656612873077D-08
    9.723683980868D-01 2.336875000000D+02-2.518914638471D+00-7.756394513536D-09
    3.446572134992D-10 1.000000000000D+00 2.196000000000D+03 0.000000000000D+00
    2.000000000000D+00 0.000000000000D+00 2.328306436539D-09 2.560000000000D+02
    2.376180000000D+05 4.000000000000D+00
 4 22  2  8 20  0  0.0-1.906869001687D-04 2.160049916711D-12 0.000000000000D+00
    8.000000000000D+00-1.900000000000D+01 4.644122017752D-09 4.594650536266D-01
   -9.629875421524D-07 1.694627688266D-03 7.394701242447D-06 5.153649387360D+03
    2.448000000000D+05 4.842877388000D-08 3.304231067173D-01 3.352761268616D-08
    9.613988253658D-01 2.370937500000D+02-3.067111520889D+00-8.034977546209D-09
    5.214502919263D-11 1.000000000000D+00 2.196000000000D+03 0.000000000000D+00
    2.000000000000D+00 0.000000000000D+00-4.190951585770D-09 5.200000000000D+02
    2.376180000000D+05 4.000000000000D+00
 3 22  2  8 20  0  0.0-1.126597635448D-04-1.671196514508D-11 0.000000000000D+00
    1.830000000000D+02-2.993750000000D+01 4.152315817764D-09-2.484301070688D+00
   -1.462176442146D-06 3.883719211444D-03 7.847324013710D-06 5.153682317734D+03
    2.448000000000D+05 5.587935447693D-09-7.505602805341D-01-2.421438694000D-08
    9.725417948409D-01 2.345937500000D+02 9.618264728933D-01-7.765680614625D-09
    3.075128091428D-10 1.000000000000D+00 2.196000000000D+03 0.000000000000D+00
    2.000000000000D+00 0.000000000000D+00 1.862645149231D-09 1.830000000000D+02
    2.376180000000D+05 4.000000000000D+00
10 22  2  8 19 59 44.0-3.151069395244D-04-1.023181539495D-11 0.000000000000D+00
    1.900000000000D+01-2.631250000000D+01 4.159458972448D-09 2.926287784752D+00
   -1.344829797745D-06 7.489342591725D-03 7.903203368187D-06 5.153678594589D+03
    2.447840000000D+05-5.587935447693D-09-7.533517227974D-01-4.656612873077D-08
    9.723683805318D-01 2.336875000000D+02-2.518914366368D+00-7.756394513536D-09
    3.446572134992D-10 1.000000000000D+00 2.196000000000D+03 0.000000000000D+00
    2.000000000000D+00 0.000000000000D+00 2.328306436539D-09 1.900000000000D+01
    2.382480000000D+05 4.000000000000D+00
26 22  2  8 20  0  0.0 1.815604045987D-04 3.296918293927D-12 0.000000000000D+00
    1.880000000000D+02 7.700000000000D+01 5.116284542359D-09 2.731504084121D+00
    3.941357135773D-06 6.852758699097D-03 6.750226020813D-06 5.153701704025D+03
    2.448000000000D+05-8.195638656616D-08 2.338771848309D+00-7.450580596924D-08
    9.386014385517D-01 2.386562500000D+02 3.657934595773D-01-8.277487647728D-09
    3.214419607765D-12 1.000000000000D+00 2.196000000000D+03 0.000000000000D+00
    2.000000000000D+00 0.000000000000D+00 6.984919309616D-09 1.880000000000D+02
    2.390460000000D+05 4.000000000000D+00
 9 22  2  8 20  0  0.0-3.549773246050D-04 1.591615728103D-12 0.000000000000D+00
    7.100000000000D+01-1.856250000000D+01 4.784485007291D-09 1.297487671901D+00
   -9.387731552124D-07 2.267150091939D-03 7.160007953644D-06 5.153619569778D+03
    2.448000000000D+05 3.725290298462D-08 2.775351554247D-01-7.264316082001D-08
    9.544072209488D-01 2.367812500000D+02 1.871483868049D+00-8.126767083898D-09
    9.678974596714D-11 1.000000000000D+00 2.196000000000D+03 0.000000000000D+00
    2.000000000000D+00 0.000000000000D+00 1.396983861923D-09 7.100000000000D+01
    2.417880000000D+05 4.000000000000D+00
17 22  2  8 20  0  0.0 5.725165829062D-04 5.002220859751D-12 0.000000000000D+00
    1.810000000000D+02-9.062500000000D-01 4.250891352402D-09 8.522914808812D-01
   -2.495944499969D-07 1.363967964426D-02 5.112960934639D-06 5.153752582550D+03
    2.448000000000D+05-1.583248376846D-07-2.783867661205D+00-1.229345798492D-07
    9.801550545923D-01 2.960312500000D+02-1.500588616259D+00-8.253915237272D-09
   -2.107230631757D-10 1.000000000000D+00 2.196000000000D+03 0.000000000000D+00
    2.000000000000D+00 0.000000000000D+00-1.117587089539D-08 1.810000000000D+02
    2.418780000000D+05 4.000000000000D+00
16 22  2  8 20  0  0.0-4.668780602515D-04-5.002220859751D-12 0.000000000000D+00
    7.900000000000D+01 7.478125000000D+01 4.515188075707D-09 1.778414058518D+00
    3.837049007416D-06 1.273101649713D-02 7.016584277153D-06 5.153602731705D+03
    2.448000000000D+05-2.980232238770D-07 2.480899293151D+00 1.676380634308D-08
    9.703600061320D-01 2.535625000000D+02 7.060777415778D-01-8.128195714834D-09
   -3.928735076157D-11 1.000000000000D+00 2.196000000000D+03 0.000000000000D+00
    2.000000000000D+00 0.000000000000D+00-1.024454832077D-08 7.900000000000D+01
    2.425680000000D+05 4.000000000000D+00
